{
    "links": {
        "self": "http://www.neowsapp.com/rest/v1/neo/3844006?api_key=iIulBulltgU6a56xZRHN4H3l9WmuAYTsLGpBGhQ2"
    },
    "id": "3844006",
    "neo_reference_id": "3844006",
    "name": "(2019 SR2)",
    "designation": "2019 SR2",
    "nasa_jpl_url": "http://ssd.jpl.nasa.gov/sbdb.cgi?sstr=3844006",
    "absolute_magnitude_h": 25.5,
    "estimated_diameter": {
        "kilometers": {
            "estimated_diameter_min": 0.0211132445,
            "estimated_diameter_max": 0.0472106499
        },
        "meters": {
            "estimated_diameter_min": 21.113244479,
            "estimated_diameter_max": 47.2106498806
        },
        "miles": {
            "estimated_diameter_min": 0.0131191578,
            "estimated_diameter_max": 0.0293353287
        },
        "feet": {
            "estimated_diameter_min": 69.2691770164,
            "estimated_diameter_max": 154.8905885541
        }
    },
    "is_potentially_hazardous_asteroid": false,
    "close_approach_data": [
        {
            "close_approach_date": "2019-09-21",
            "close_approach_date_full": "2019-Sep-21 12:30",
            "epoch_date_close_approach": 1569069000000,
            "relative_velocity": {
                "kilometers_per_second": "8.2710198645",
                "kilometers_per_hour": "29775.6715123434",
                "miles_per_hour": "18501.4443349892"
            },
            "miss_distance": {
                "astronomical": "0.0444555174",
                "lunar": "17.2931962686",
                "kilometers": "6650450.712787938",
                "miles": "4132398.4510640244"
            },
            "orbiting_body": "Earth"
        },
        {
            "close_approach_date": "2098-08-13",
            "close_approach_date_full": "2098-Aug-13 11:17",
            "epoch_date_close_approach": 4058767020000,
            "relative_velocity": {
                "kilometers_per_second": "10.0000179688",
                "kilometers_per_hour": "36000.0646876793",
                "miles_per_hour": "22369.0401944083"
            },
            "miss_distance": {
                "astronomical": "0.1436803417",
                "lunar": "55.8916529213",
                "kilometers": "21494273.079192179",
                "miles": "13355921.9690789102"
            },
            "orbiting_body": "Earth"
        },
        {
            "close_approach_date": "2180-10-27",
            "close_approach_date_full": "2180-Oct-27 21:16",
            "epoch_date_close_approach": 6652962960000,
            "relative_velocity": {
                "kilometers_per_second": "18.3165344134",
                "kilometers_per_hour": "65939.5238881813",
                "miles_per_hour": "40972.255829298"
            },
            "miss_distance": {
                "astronomical": "0.3799900597",
                "lunar": "147.8161332233",
                "kilometers": "56845703.552292839",
                "miles": "35322282.2714016182"
            },
            "orbiting_body": "Earth"
        },
        {
            "close_approach_date": "2190-07-16",
            "close_approach_date_full": "2190-Jul-16 20:46",
            "epoch_date_close_approach": 6959594760000,
            "relative_velocity": {
                "kilometers_per_second": "20.3006497153",
                "kilometers_per_hour": "73082.3389749176",
                "miles_per_hour": "45410.5233480537"
            },
            "miss_distance": {
                "astronomical": "0.4745747506",
                "lunar": "184.6095779834",
                "kilometers": "70995371.845541222",
                "miles": "44114478.4492719836"
            },
            "orbiting_body": "Earth"
        }
    ],
    "orbital_data": {
        "orbit_id": "5",
        "orbit_determination_date": "2019-10-05 06:19:48",
        "first_observation_date": "2019-09-22",
        "last_observation_date": "2019-10-05",
        "data_arc_in_days": 13,
        "observations_used": 59,
        "orbit_uncertainty": "7",
        "minimum_orbit_intersection": ".0425281",
        "jupiter_tisserand_invariant": "3.449",
        "epoch_osculation": "2459000.5",
        "eccentricity": ".5313518773469218",
        "semi_major_axis": "2.211106098336594",
        "inclination": "7.328250388161991",
        "ascending_node_longitude": "184.1444516262245",
        "orbital_period": "1200.916468457576",
        "perihelion_distance": "1.036230721972217",
        "perihelion_argument": "161.1633148871307",
        "aphelion_distance": "3.385981474700971",
        "perihelion_time": "2458737.629637447611",
        "mean_anomaly": "78.80092662931361",
        "mean_motion": ".2997710577342435",
        "equinox": "J2000",
        "orbit_class": {
            "orbit_class_type": "AMO",
            "orbit_class_description": "Near-Earth asteroid orbits similar to that of 1221 Amor",
            "orbit_class_range": "1.017 AU < q (perihelion) < 1.3 AU"
        }
    },
    "is_sentry_object": false
}